RADUGA 1 [-]            
1 08513U 75123A   23016.87593833 -.00000004  00000+0  00000+0 0  9996
2 08513   6.0129 285.6090 0006499 222.2532 352.3955  1.00292406182437
RADUGA 2 [-]            
1 09416U 76092A   23016.74424431 -.00000162  00000+0  00000+0 0  9993
2 09416   6.6778 287.6348 0027745   3.5060 178.4368  1.00280954116838
RADUGA 3 [-]            
1 10159U 77071A   23016.87541535  .00000041  00000+0  00000+0 0  9991
2 10159   7.2954 290.2910 0008516 244.9794 322.1858  1.00189430164531
RADUGA 4 [-]            
1 10987U 78073A   23016.82688230  .00000053  00000+0  00000+0 0  9995
2 10987   7.9266 293.8817 0008909   4.2953 176.7089  1.00344311107096
RADUGA 5 [-]            
1 11343U 79035A   23016.82963664 -.00000067  00000+0  00000+0 0  9994
2 11343   8.3892 296.7022 0005987 174.5465  19.8977  1.00247186116843
RADUGA 6 [-]            
1 11708U 80016A   23016.78316171 -.00000252  00000+0  00000+0 0  9996
2 11708   8.7555 299.8400 0002121 204.2560 349.0511  1.00327228109655
RADUGA 7 [-]            
1 12003U 80081A   23016.13982623 -.00000167  00000+0  00000+0 0  9992
2 12003   8.9450 301.8350 0009510 272.1886 285.8191  1.00262780110791
RADUGA 8 [-]            
1 12351U 81027A   23016.66924398 -.00000158  00000+0  00000+0 0  9992
2 12351   9.2760 302.3989 0081368 234.0592 330.3169  1.00348273110020
RADUGA 9 [-]            
1 12618U 81069A   23016.78302354 -.00000241  00000+0  00000+0 0  9992
2 12618   9.5035 305.4355 0003171 148.0788  37.4930  1.00345382 34835
RADUGA 10 [-]           
1 12897U 81102A   23016.77714803 -.00000148  00000+0  00000+0 0  9990
2 12897   9.5909 306.4358 0005103 185.3338 348.1841  1.00260470104835
RADUGA 11 [-]           
1 13669U 82113A   23016.47712047 -.00000043  00000+0  00000+0 0  9990
2 13669  11.6770 320.3871 0038234 258.9455 295.8343  0.97708178109349
RADUGA 12 [-]           
1 13974U 83028A   23016.87733296 -.00000081  00000+0  00000+0 0  9990
2 13974  10.7663 316.3332 0001734  92.4283  98.9240  1.00295237156871
RADUGA 13 [-]           
1 14307U 83088A   23017.54677747 -.00000116  00000+0  00000+0 0  9999
2 14307  11.9313 321.9106 0015676  43.0846 144.7506  0.98174792106693
RADUGA 14 [-]           
1 14725U 84016A   23016.87820462 -.00000113  00000+0  00000+0 0  9991
2 14725  10.9875 320.1580 0004276 137.5464  54.6019  1.00247677105576
RADUGA 15 [-]           
1 15057U 84063A   23016.71560036 -.00000332  00000+0  00000+0 0  9996
2 15057  11.1133 321.1456 0004982 161.9329  16.4189  1.00240808128593
RADUGA 16 [-]           
1 15946U 85070A   23017.04747894  .00000129  00000+0  00000+0 0  9991
2 15946  11.5978 325.8483 0001586 168.6934 208.6002  1.00344887109719
RADUGA 17 [-]           
1 16250U 85107A   23016.47537719  .00000120  00000+0  00000+0 0  9991
2 16250  11.7273 327.2673 0012857 189.2949 348.2061  1.00143976139303
RADUGA 18 [-]           
1 16497U 86007A   23016.61170316 -.00000158  00000+0  00000+0 0  9998
2 16497  12.5451 329.9969 0074363 169.2828  19.2066  0.98814931133535
RADUGA 19 [-]           
1 17046U 86082A   23016.70997626 -.00000163  00000+0  00000+0 0  9999
2 17046  12.9934 333.9600 0012641 153.1599 199.8634  0.98461123130625
RADUGA 20 [-]           
1 17611U 87028A   23016.81552975 -.00000099  00000+0  00000+0 0  9992
2 17611  15.0219 337.4570 0030281 142.3505  45.1089  0.95961319126345
RADUGA 21 [-]           
1 18631U 87100A   23016.97940312  .00000059  00000+0  00000+0 0  9994
2 18631  13.0899 334.7278 0003210 134.3361 227.6772  1.00347022128577
RADUGA 22 [-]           
1 19596U 88095A   23016.78262406 -.00000180  00000+0  00000+0 0  9995
2 19596  13.0952 339.0847 0007138 142.4478   3.3371  1.00161632109147
RADUGA 23 [-]           
1 19928U 89030A   23016.87846611 -.00000169  00000+0  00000+0 0  9997
2 19928  13.2552 340.9064 0021036 168.1996   4.3339  1.00364191122346
RADUGA-1 1 [-]          
1 20083U 89048A   23016.71381153 -.00000221  00000+0  00000+0 0  9997
2 20083  14.0241 343.9970 0022286 119.3817 245.0699  0.98710629118964
RADUGA 24 [-]           
1 20367U 89098A   23016.51250946  .00000127  00000+0  00000+0 0  9994
2 20367  13.8438 343.1432 0001810 147.6088 213.9571  1.00263062120462
RADUGA 25 [-]           
1 20499U 90016A   23017.41306641 -.00000014  00000+0  00000+0 0  9992
2 20499  13.6149 343.8174 0004716 148.5660  17.1234  1.00166454120444
RADUGA 26 [-]           
1 21016U 90112A   23017.38194854 -.00000226  00000+0  00000+0 0  9997
2 21016  13.9492 347.0685 0007065  96.0197 259.3815  1.00311661117745
RADUGA-1 2 [-]          
1 21038U 90116A   23016.51564740  .00000025  00000+0  00000+0 0  9990
2 21038  13.9894 347.1451 0008351 106.6410 268.1597  1.00320214 34839
RADUGA 27 [-]           
1 21132U 91014A   23016.51102765  .00000138  00000+0  00000+0 0  9993
2 21132  14.4968 346.6355 0003153  96.5509 253.3372  1.00342843116795
RADUGA 28 [-]           
1 21821U 91087A   23016.51495007  .00000070  00000+0  00000+0 0  9997
2 21821  14.2853 350.4163 0006866 128.6873 238.9313  1.00191796113819
RADUGA 29 [-]           
1 22557U 93013A   23017.45263932 -.00000202  00000+0  00000+0 0  9997
2 22557  14.5183 354.5787 0007015 116.8554 251.8325  1.00383575109195
RADUGA 30 [-]           
1 22836U 93062A   23017.44993720 -.00000047  00000+0  00000+0 0  9992
2 22836  14.5711 356.5630 0001453 346.1736   5.5614  1.00266513107275
RADUGA-1 3 [-]          
1 22981U 94008A   23016.44678709 -.00000078  00000+0  00000+0 0  9994
2 22981  14.6562 357.7179 0003220 106.4627 246.6897  1.00214474105966
RADUGA 31 [-]           
1 23010U 94012A   23016.78522220 -.00000246  00000+0  00000+0 0  9993
2 23010  14.6262 357.7118 0005266  98.9860  31.9954  1.00330727105842
RADUGA 32 [-]           
1 23448U 94087A   23016.51765219 -.00000057  00000+0  00000+0 0  9998
2 23448  14.6265   0.4373 0004977 208.1894 164.2834  1.00266152120377
RADUGA-1 4 [-]          
1 25642U 99010A   23017.52115096 -.00000044  00000+0  00000+0 0  9997
2 25642  15.2709  11.9457 0002607 257.5013 101.9548  1.00353819 87474
RADUGA-1 5 [-]          
1 26477U 00049A   23016.58755847  .00000014  00000+0  00000+0 0  9993
2 26477  13.2502  16.9888 0004856  61.6519 310.1321  1.00333227 81913
RADUGA-1 6 [-]          
1 26936U 01045A   23016.85545457 -.00000150  00000+0  00000+0 0  9996
2 26936  13.4583  23.3521 0015979 170.1301 196.6595  0.97745492 76418
RADUGA-1 7 [-]          
1 28194U 04010A   23016.79071131 -.00000234  00000+0  00000+0 0  9998
2 28194  12.2144  30.1402 0002014 194.1830 268.9920  1.00172375 68919
RADUGA-1M 1 [-]         
1 32373U 07058A   23016.62320894  .00000088  00000+0  00000+0 0  9998
2 32373   7.3681  62.5530 0002060 322.0590 195.4223  0.99393760 39997
RADUGA-1 8 [-]          
1 34264U 09010A   23016.76678550 -.00000332  00000+0  00000+0 0  9992
2 34264   9.6449  52.4666 0013696   3.5348  96.9064  0.99824624 50722
RADUGA-1M 2 [+]         
1 36358U 10002A   23016.87916344 -.00000163  00000+0  00000+0 0  9991
2 36358   0.3852  97.8582 0003064 253.8097 165.8601  1.00270328 37584
RADUGA-1M 3 [+]         
1 39375U 13062A   23015.95604788  .00000175  00000+0  00000+0 0  9998
2 39375   2.7720  87.4251 0001286 157.1929 249.6422  1.00273399 33611
